{
  "type": "FeatureCollection",
  "features": [
    {
      "type": "Feature",
      "properties": {
        "name": "Depok Baru",
        "mode": "KRL"
      },
      "geometry": {
        "type": "Point",
        "coordinates": [
          106.8216412,
          -6.3911293
        ]
      }
    },
    {
      "type": "Feature",
      "properties": {
        "name": "Tanah Tinggi",
        "mode": "KRL"
      },
      "geometry": {
        "type": "Point",
        "coordinates": [
          106.6467095,
          -6.1751701
        ]
      }
    },
    {
      "type": "Feature",
      "properties": {
        "name": "Tangerang",
        "mode": "KRL"
      },
      "geometry": {
        "type": "Point",
        "coordinates": [
          106.6320106,
          -6.1769753
        ]
      }
    },
    {
      "type": "Feature",
      "properties": {
        "name": "Kranji",
        "mode": "KRL"
      },
      "geometry": {
        "type": "Point",
        "coordinates": [
          106.9798267,
          -6.2245133
        ]
      }
    },
    {
      "type": "Feature",
      "properties": {
        "name": "Cibitung",
        "mode": "KRL"
      },
      "geometry": {
        "type": "Point",
        "coordinates": [
          107.0837982,
          -6.2618245
        ]
      }
    },
    {
      "type": "Feature",
      "properties": {
        "name": "Sudimara",
        "mode": "KRL"
      },
      "geometry": {
        "type": "Point",
        "coordinates": [
          106.7126471,
          -6.2968441
        ]
      }
    },
    {
      "type": "Feature",
      "properties": {
        "name": "Pondok Ranji",
        "mode": "KRL"
      },
      "geometry": {
        "type": "Point",
        "coordinates": [
          106.7446926,
          -6.2766831
        ]
      }
    },
    {
      "type": "Feature",
      "properties": {
        "name": "Jurangmangu",
        "mode": "KRL"
      },
      "geometry": {
        "type": "Point",
        "coordinates": [
          106.7291463,
          -6.288582
        ]
      }
    },
    {
      "type": "Feature",
      "properties": {
        "name": "Duren Kalibata",
        "mode": "KRL"
      },
      "geometry": {
        "type": "Point",
        "coordinates": [
          106.8551672,
          -6.2552012
        ]
      }
    },
    {
      "type": "Feature",
      "properties": {
        "name": "Citayam",
        "mode": "KRL"
      },
      "geometry": {
        "type": "Point",
        "coordinates": [
          106.8023619,
          -6.4488237
        ]
      }
    },
    {
      "type": "Feature",
      "properties": {
        "name": "Kedunggedeh",
        "mode": "KRL"
      },
      "geometry": {
        "type": "Point",
        "coordinates": [
          107.2611531,
          -6.2699184
        ]
      }
    },
    {
      "type": "Feature",
      "properties": {
        "name": "Tigaraksa",
        "mode": "KRL"
      },
      "geometry": {
        "type": "Point",
        "coordinates": [
          106.4340596,
          -6.328836
        ]
      }
    },
    {
      "type": "Feature",
      "properties": {
        "name": "Tenjo",
        "mode": "KRL"
      },
      "geometry": {
        "type": "Point",
        "coordinates": [
          106.4616586,
          -6.3273185
        ]
      }
    },
    {
      "type": "Feature",
      "properties": {
        "name": "Parungpanjang",
        "mode": "KRL"
      },
      "geometry": {
        "type": "Point",
        "coordinates": [
          106.5698462,
          -6.3443444
        ]
      }
    },
    {
      "type": "Feature",
      "properties": {
        "name": "Daru",
        "mode": "KRL"
      },
      "geometry": {
        "type": "Point",
        "coordinates": [
          106.4925632,
          -6.3379704
        ]
      }
    },
    {
      "type": "Feature",
      "properties": {
        "name": "Cicayur",
        "mode": "KRL"
      },
      "geometry": {
        "type": "Point",
        "coordinates": [
          106.6189713,
          -6.329683
        ]
      }
    },
    {
      "type": "Feature",
      "properties": {
        "name": "Cilejit",
        "mode": "KRL"
      },
      "geometry": {
        "type": "Point",
        "coordinates": [
          106.5096432,
          -6.3542652
        ]
      }
    },
    {
      "type": "Feature",
      "properties": {
        "name": "Karangtengah",
        "mode": "KRL"
      },
      "geometry": {
        "type": "Point",
        "coordinates": [
          106.8224172,
          -6.8963596
        ]
      }
    },
    {
      "type": "Feature",
      "properties": {
        "name": "Cibadak",
        "mode": "KRL"
      },
      "geometry": {
        "type": "Point",
        "coordinates": [
          106.7804342,
          -6.8882892
        ]
      }
    },
    {
      "type": "Feature",
      "properties": {
        "name": "Ciranjang",
        "mode": "KRL"
      },
      "geometry": {
        "type": "Point",
        "coordinates": [
          107.25121,
          -6.8142021
        ]
      }
    },
    {
      "type": "Feature",
      "properties": {
        "name": "Maswati",
        "mode": "KRL"
      },
      "geometry": {
        "type": "Point",
        "coordinates": [
          107.4089422,
          -6.7608097
        ]
      }
    },
    {
      "type": "Feature",
      "properties": {
        "name": "Rendeh",
        "mode": "KRL"
      },
      "geometry": {
        "type": "Point",
        "coordinates": [
          107.3985529,
          -6.7362218
        ]
      }
    },
    {
      "type": "Feature",
      "properties": {
        "name": "Plered",
        "mode": "KRL"
      },
      "geometry": {
        "type": "Point",
        "coordinates": [
          107.3913078,
          -6.6409293
        ]
      }
    },
    {
      "type": "Feature",
      "properties": {
        "name": "Cikadongdong",
        "mode": "KRL"
      },
      "geometry": {
        "type": "Point",
        "coordinates": [
          107.3908287,
          -6.7155099
        ]
      }
    },
    {
      "type": "Feature",
      "properties": {
        "name": "Sukatani",
        "mode": "KRL"
      },
      "geometry": {
        "type": "Point",
        "coordinates": [
          107.4084641,
          -6.6108247
        ]
      }
    },
    {
      "type": "Feature",
      "properties": {
        "name": "Nambo",
        "mode": "KRL"
      },
      "geometry": {
        "type": "Point",
        "coordinates": [
          106.906269,
          -6.466282
        ]
      }
    },
    {
      "type": "Feature",
      "properties": {
        "name": "Pondok Rajeg",
        "mode": "KRL"
      },
      "geometry": {
        "type": "Point",
        "coordinates": [
          106.824296,
          -6.4607829
        ]
      }
    },
    {
      "type": "Feature",
      "properties": {
        "name": "Cibinong",
        "mode": "KRL"
      },
      "geometry": {
        "type": "Point",
        "coordinates": [
          106.8525201,
          -6.4642482
        ]
      }
    },
    {
      "type": "Feature",
      "properties": {
        "name": "Dawuan",
        "mode": "KRL"
      },
      "geometry": {
        "type": "Point",
        "coordinates": [
          107.4333466,
          -6.3931077
        ]
      }
    },
    {
      "type": "Feature",
      "properties": {
        "name": "Karawang",
        "mode": "KRL"
      },
      "geometry": {
        "type": "Point",
        "coordinates": [
          107.3002592,
          -6.3050826
        ]
      }
    },
    {
      "type": "Feature",
      "properties": {
        "name": "Cilebut",
        "mode": "KRL"
      },
      "geometry": {
        "type": "Point",
        "coordinates": [
          106.8006884,
          -6.5307239
        ]
      }
    },
    {
      "type": "Feature",
      "properties": {
        "name": "Maseng",
        "mode": "KRL"
      },
      "geometry": {
        "type": "Point",
        "coordinates": [
          106.8145685,
          -6.7027797
        ]
      }
    },
    {
      "type": "Feature",
      "properties": {
        "name": "Cigombong",
        "mode": "KRL"
      },
      "geometry": {
        "type": "Point",
        "coordinates": [
          106.8029383,
          -6.7422491
        ]
      }
    },
    {
      "type": "Feature",
      "properties": {
        "name": "Depok",
        "mode": "KRL"
      },
      "geometry": {
        "type": "Point",
        "coordinates": [
          106.8170842,
          -6.4048263
        ]
      }
    },
    {
      "type": "Feature",
      "properties": {
        "name": "Batutulis",
        "mode": "KRL"
      },
      "geometry": {
        "type": "Point",
        "coordinates": [
          106.8097396,
          -6.6261433
        ]
      }
    },
    {
      "type": "Feature",
      "properties": {
        "name": "Cawang",
        "mode": "KRL"
      },
      "geometry": {
        "type": "Point",
        "coordinates": [
          106.8586903,
          -6.2425517
        ]
      }
    },
    {
      "type": "Feature",
      "properties": {
        "name": "Universitas Indonesia",
        "mode": "KRL"
      },
      "geometry": {
        "type": "Point",
        "coordinates": [
          106.831782,
          -6.3604315
        ]
      }
    },
    {
      "type": "Feature",
      "properties": {
        "name": "Ciomas",
        "mode": "KRL"
      },
      "geometry": {
        "type": "Point",
        "coordinates": [
          106.8170161,
          -6.663597
        ]
      }
    },
    {
      "type": "Feature",
      "properties": {
        "name": "Tebet",
        "mode": "KRL"
      },
      "geometry": {
        "type": "Point",
        "coordinates": [
          106.8584389,
          -6.2263977
        ]
      }
    },
    {
      "type": "Feature",
      "properties": {
        "name": "Parungkuda",
        "mode": "KRL"
      },
      "geometry": {
        "type": "Point",
        "coordinates": [
          106.7605635,
          -6.8466613
        ]
      }
    },
    {
      "type": "Feature",
      "properties": {
        "name": "Bekasi",
        "mode": "KRL"
      },
      "geometry": {
        "type": "Point",
        "coordinates": [
          106.9987436,
          -6.2362143
        ]
      }
    },
    {
      "type": "Feature",
      "properties": {
        "name": "Buaran",
        "mode": "KRL"
      },
      "geometry": {
        "type": "Point",
        "coordinates": [
          106.92316,
          -6.2156064
        ]
      }
    },
    {
      "type": "Feature",
      "properties": {
        "name": "Cakung",
        "mode": "KRL"
      },
      "geometry": {
        "type": "Point",
        "coordinates": [
          106.9524791,
          -6.219081
        ]
      }
    },
    {
      "type": "Feature",
      "properties": {
        "name": "Citeras",
        "mode": "KRL"
      },
      "geometry": {
        "type": "Point",
        "coordinates": [
          106.3326694,
          -6.3350582
        ]
      }
    },
    {
      "type": "Feature",
      "properties": {
        "name": "Kramat",
        "mode": "KRL"
      },
      "geometry": {
        "type": "Point",
        "coordinates": [
          106.8565119,
          -6.1936203
        ]
      }
    },
    {
      "type": "Feature",
      "properties": {
        "name": "Pesing",
        "mode": "KRL"
      },
      "geometry": {
        "type": "Point",
        "coordinates": [
          106.7719077,
          -6.1612525
        ]
      }
    },
    {
      "type": "Feature",
      "properties": {
        "name": "Pondok Cina",
        "mode": "KRL"
      },
      "geometry": {
        "type": "Point",
        "coordinates": [
          106.8320844,
          -6.3690593
        ]
      }
    },
    {
      "type": "Feature",
      "properties": {
        "name": "Poris",
        "mode": "KRL"
      },
      "geometry": {
        "type": "Point",
        "coordinates": [
          106.6807523,
          -6.1697346
        ]
      }
    },
    {
      "type": "Feature",
      "properties": {
        "name": "Serpong",
        "mode": "KRL"
      },
      "geometry": {
        "type": "Point",
        "coordinates": [
          106.6655836,
          -6.3201527
        ]
      }
    },
    {
      "type": "Feature",
      "properties": {
        "name": "ASEAN Headquarters",
        "mode": "MRT"
      },
      "geometry": {
        "type": "Point",
        "coordinates": [
          106.7984457,
          -6.2387737
        ]
      }
    },
    {
      "type": "Feature",
      "properties": {
        "name": "Jatinegara",
        "mode": "KRL"
      },
      "geometry": {
        "type": "Point",
        "coordinates": [
          106.8703394,
          -6.2149252
        ]
      }
    },
    {
      "type": "Feature",
      "properties": {
        "name": "Gondangdia",
        "mode": "KRL"
      },
      "geometry": {
        "type": "Point",
        "coordinates": [
          106.8325657,
          -6.1859109
        ]
      }
    },
    {
      "type": "Feature",
      "properties": {
        "name": "Pondok Jati",
        "mode": "KRL"
      },
      "geometry": {
        "type": "Point",
        "coordinates": [
          106.8623419,
          -6.2091242
        ]
      }
    },
    {
      "type": "Feature",
      "properties": {
        "name": "Manggarai",
        "mode": "KRL"
      },
      "geometry": {
        "type": "Point",
        "coordinates": [
          106.849935,
          -6.2101704
        ]
      }
    },
    {
      "type": "Feature",
      "properties": {
        "name": "Cikini",
        "mode": "KRL"
      },
      "geometry": {
        "type": "Point",
        "coordinates": [
          106.8412799,
          -6.1985052
        ]
      }
    },
    {
      "type": "Feature",
      "properties": {
        "name": "Tanah Abang",
        "mode": "KRL"
      },
      "geometry": {
        "type": "Point",
        "coordinates": [
          106.8108938,
          -6.1857127
        ]
      }
    },
    {
      "type": "Feature",
      "properties": {
        "name": "Pasar Senen",
        "mode": "KRL"
      },
      "geometry": {
        "type": "Point",
        "coordinates": [
          106.8445744,
          -6.1744233
        ]
      }
    },
    {
      "type": "Feature",
      "properties": {
        "name": "Karet",
        "mode": "KRL"
      },
      "geometry": {
        "type": "Point",
        "coordinates": [
          106.8167704,
          -6.2009538
        ]
      }
    },
    {
      "type": "Feature",
      "properties": {
        "name": "Palmerah",
        "mode": "KRL"
      },
      "geometry": {
        "type": "Point",
        "coordinates": [
          106.7972321,
          -6.2079197
        ]
      }
    },
    {
      "type": "Feature",
      "properties": {
        "name": "Pasar Minggu Baru",
        "mode": "KRL"
      },
      "geometry": {
        "type": "Point",
        "coordinates": [
          106.8517957,
          -6.262798
        ]
      }
    },
    {
      "type": "Feature",
      "properties": {
        "name": "Juanda",
        "mode": "KRL"
      },
      "geometry": {
        "type": "Point",
        "coordinates": [
          106.8304609,
          -6.1666746
        ]
      }
    },
    {
      "type": "Feature",
      "properties": {
        "name": "Gambir",
        "mode": "KRL"
      },
      "geometry": {
        "type": "Point",
        "coordinates": [
          106.8306473,
          -6.1766553
        ]
      }
    },
    {
      "type": "Feature",
      "properties": {
        "name": "Kemayoran",
        "mode": "KRL"
      },
      "geometry": {
        "type": "Point",
        "coordinates": [
          106.8414012,
          -6.1617033
        ]
      }
    },
    {
      "type": "Feature",
      "properties": {
        "name": "Klender",
        "mode": "KRL"
      },
      "geometry": {
        "type": "Point",
        "coordinates": [
          106.8994133,
          -6.2133188
        ]
      }
    },
    {
      "type": "Feature",
      "properties": {
        "name": "Klender Baru",
        "mode": "KRL"
      },
      "geometry": {
        "type": "Point",
        "coordinates": [
          106.9401833,
          -6.2176591
        ]
      }
    },
    {
      "type": "Feature",
      "properties": {
        "name": "Kalideres",
        "mode": "KRL"
      },
      "geometry": {
        "type": "Point",
        "coordinates": [
          106.7037283,
          -6.1659662
        ]
      }
    },
    {
      "type": "Feature",
      "properties": {
        "name": "Taman Mini",
        "mode": "LRT"
      },
      "geometry": {
        "type": "Point",
        "coordinates": [
          106.8805584,
          -6.2929088
        ]
      }
    },
    {
      "type": "Feature",
      "properties": {
        "name": "BNI City",
        "mode": "KRL"
      },
      "geometry": {
        "type": "Point",
        "coordinates": [
          106.8197174,
          -6.2015938
        ]
      }
    },
    {
      "type": "Feature",
      "properties": {
        "name": "Universitas Pancasila",
        "mode": "KRL"
      },
      "geometry": {
        "type": "Point",
        "coordinates": [
          106.834263,
          -6.3393452
        ]
      }
    },
    {
      "type": "Feature",
      "properties": {
        "name": "Gang Sentiong",
        "mode": "KRL"
      },
      "geometry": {
        "type": "Point",
        "coordinates": [
          106.8508709,
          -6.1861531
        ]
      }
    },
    {
      "type": "Feature",
      "properties": {
        "name": "Sawah Besar",
        "mode": "KRL"
      },
      "geometry": {
        "type": "Point",
        "coordinates": [
          106.8276549,
          -6.1606672
        ]
      }
    },
    {
      "type": "Feature",
      "properties": {
        "name": "Sudirman",
        "mode": "KRL"
      },
      "geometry": {
        "type": "Point",
        "coordinates": [
          106.8234493,
          -6.2024081
        ]
      }
    },
    {
      "type": "Feature",
      "properties": {
        "name": "Tanjung Barat",
        "mode": "KRL"
      },
      "geometry": {
        "type": "Point",
        "coordinates": [
          106.8389492,
          -6.3080407
        ]
      }
    },
    {
      "type": "Feature",
      "properties": {
        "name": "Angke",
        "mode": "KRL"
      },
      "geometry": {
        "type": "Point",
        "coordinates": [
          106.8007792,
          -6.1447372
        ]
      }
    },
    {
      "type": "Feature",
      "properties": {
        "name": "Rajawali",
        "mode": "KRL"
      },
      "geometry": {
        "type": "Point",
        "coordinates": [
          106.8368325,
          -6.1450996
        ]
      }
    },
    {
      "type": "Feature",
      "properties": {
        "name": "Duri",
        "mode": "KRL"
      },
      "geometry": {
        "type": "Point",
        "coordinates": [
          106.8012968,
          -6.1552764
        ]
      }
    },
    {
      "type": "Feature",
      "properties": {
        "name": "Mangga Besar",
        "mode": "KRL"
      },
      "geometry": {
        "type": "Point",
        "coordinates": [
          106.8269826,
          -6.1498037
        ]
      }
    },
    {
      "type": "Feature",
      "properties": {
        "name": "Pasar Minggu",
        "mode": "KRL"
      },
      "geometry": {
        "type": "Point",
        "coordinates": [
          106.8448558,
          -6.2833322
        ]
      }
    },
    {
      "type": "Feature",
      "properties": {
        "name": "Jayakarta",
        "mode": "KRL"
      },
      "geometry": {
        "type": "Point",
        "coordinates": [
          106.8231322,
          -6.1412999
        ]
      }
    },
    {
      "type": "Feature",
      "properties": {
        "name": "Lenteng Agung",
        "mode": "KRL"
      },
      "geometry": {
        "type": "Point",
        "coordinates": [
          106.8346791,
          -6.3303079
        ]
      }
    },
    {
      "type": "Feature",
      "properties": {
        "name": "Tanjung Priuk",
        "mode": "KRL"
      },
      "geometry": {
        "type": "Point",
        "coordinates": [
          106.8814984,
          -6.1106914
        ]
      }
    },
    {
      "type": "Feature",
      "properties": {
        "name": "Rawa Buaya",
        "mode": "KRL"
      },
      "geometry": {
        "type": "Point",
        "coordinates": [
          106.7227543,
          -6.1627437
        ]
      }
    },
    {
      "type": "Feature",
      "properties": {
        "name": "Jakarta Kota",
        "mode": "KRL"
      },
      "geometry": {
        "type": "Point",
        "coordinates": [
          106.8146203,
          -6.1375828
        ]
      }
    },
    {
      "type": "Feature",
      "properties": {
        "name": "Grogol",
        "mode": "KRL"
      },
      "geometry": {
        "type": "Point",
        "coordinates": [
          106.7896101,
          -6.162035
        ]
      }
    },
    {
      "type": "Feature",
      "properties": {
        "name": "Kebayoran",
        "mode": "KRL"
      },
      "geometry": {
        "type": "Point",
        "coordinates": [
          106.7825345,
          -6.23723
        ]
      }
    },
    {
      "type": "Feature",
      "properties": {
        "name": "Taman Kota",
        "mode": "KRL"
      },
      "geometry": {
        "type": "Point",
        "coordinates": [
          106.7565728,
          -6.158627
        ]
      }
    },
    {
      "type": "Feature",
      "properties": {
        "name": "Ancol",
        "mode": "KRL"
      },
      "geometry": {
        "type": "Point",
        "coordinates": [
          106.8451374,
          -6.128115
        ]
      }
    },
    {
      "type": "Feature",
      "properties": {
        "name": "Jakarta Gudang",
        "mode": "KRL"
      },
      "geometry": {
        "type": "Point",
        "coordinates": [
          106.819373,
          -6.133327
        ]
      }
    },
    {
      "type": "Feature",
      "properties": {
        "name": "Bekasi Timur",
        "mode": "KRL"
      },
      "geometry": {
        "type": "Point",
        "coordinates": [
          107.0181046,
          -6.2467953
        ]
      }
    },
    {
      "type": "Feature",
      "properties": {
        "name": "Cikoya",
        "mode": "KRL"
      },
      "geometry": {
        "type": "Point",
        "coordinates": [
          106.4116547,
          -6.3357385
        ]
      }
    },
    {
      "type": "Feature",
      "properties": {
        "name": "Metland Telagamurni",
        "mode": "KRL"
      },
      "geometry": {
        "type": "Point",
        "coordinates": [
          107.111227,
          -6.2574741
        ]
      }
    },
    {
      "type": "Feature",
      "properties": {
        "name": "Rawa Buntu",
        "mode": "KRL"
      },
      "geometry": {
        "type": "Point",
        "coordinates": [
          106.6761518,
          -6.314884
        ]
      }
    },
    {
      "type": "Feature",
      "properties": {
        "name": "Bojonggede",
        "mode": "KRL"
      },
      "geometry": {
        "type": "Point",
        "coordinates": [
          106.795025,
          -6.4932345
        ]
      }
    },
    {
      "type": "Feature",
      "properties": {
        "name": "Kampung Bandan",
        "mode": "KRL"
      },
      "geometry": {
        "type": "Point",
        "coordinates": [
          106.8284875,
          -6.1327023
        ]
      }
    },
    {
      "type": "Feature",
      "properties": {
        "name": "Jakarta International Stadium",
        "mode": "KRL"
      },
      "geometry": {
        "type": "Point",
        "coordinates": [
          106.8613596,
          -6.1228211
        ]
      }
    },
    {
      "type": "Feature",
      "properties": {
        "name": "Karawang",
        "mode": "KRL"
      },
      "geometry": {
        "type": "Point",
        "coordinates": [
          107.218992,
          -6.3646774
        ]
      }
    },
    {
      "type": "Feature",
      "properties": {
        "name": "Halim",
        "mode": "KRL"
      },
      "geometry": {
        "type": "Point",
        "coordinates": [
          106.8844875,
          -6.2456352
        ]
      }
    },
    {
      "type": "Feature",
      "properties": {
        "name": "Boulevard Utara",
        "mode": "LRT"
      },
      "geometry": {
        "type": "Point",
        "coordinates": [
          106.9059815,
          -6.1594366
        ]
      }
    },
    {
      "type": "Feature",
      "properties": {
        "name": "Boulevard Selatan",
        "mode": "LRT"
      },
      "geometry": {
        "type": "Point",
        "coordinates": [
          106.9000145,
          -6.1689933
        ]
      }
    },
    {
      "type": "Feature",
      "properties": {
        "name": "Pulomas",
        "mode": "LRT"
      },
      "geometry": {
        "type": "Point",
        "coordinates": [
          106.8933929,
          -6.1773105
        ]
      }
    },
    {
      "type": "Feature",
      "properties": {
        "name": "Equestrian",
        "mode": "LRT"
      },
      "geometry": {
        "type": "Point",
        "coordinates": [
          106.8912789,
          -6.1840567
        ]
      }
    },
    {
      "type": "Feature",
      "properties": {
        "name": "Velodrome",
        "mode": "LRT"
      },
      "geometry": {
        "type": "Point",
        "coordinates": [
          106.8911771,
          -6.1921316
        ]
      }
    },
    {
      "type": "Feature",
      "properties": {
        "name": "Pegangsaan Dua",
        "mode": "LRT"
      },
      "geometry": {
        "type": "Point",
        "coordinates": [
          106.9142091,
          -6.1572135
        ]
      }
    },
    {
      "type": "Feature",
      "properties": {
        "name": "Bundaran HI Bank Jakarta",
        "mode": "MRT"
      },
      "geometry": {
        "type": "Point",
        "coordinates": [
          106.8230084,
          -6.1918644
        ]
      }
    },
    {
      "type": "Feature",
      "properties": {
        "name": "Dukuh Atas BNI",
        "mode": "MRT"
      },
      "geometry": {
        "type": "Point",
        "coordinates": [
          106.822788,
          -6.2007957
        ]
      }
    },
    {
      "type": "Feature",
      "properties": {
        "name": "Setiabudi Astra",
        "mode": "MRT"
      },
      "geometry": {
        "type": "Point",
        "coordinates": [
          106.8216945,
          -6.2090648
        ]
      }
    },
    {
      "type": "Feature",
      "properties": {
        "name": "Bendungan Hilir",
        "mode": "MRT"
      },
      "geometry": {
        "type": "Point",
        "coordinates": [
          106.8179484,
          -6.2150263
        ]
      }
    },
    {
      "type": "Feature",
      "properties": {
        "name": "Istora Mandiri",
        "mode": "MRT"
      },
      "geometry": {
        "type": "Point",
        "coordinates": [
          106.8086229,
          -6.22239
        ]
      }
    },
    {
      "type": "Feature",
      "properties": {
        "name": "Senayan Mastercard",
        "mode": "MRT"
      },
      "geometry": {
        "type": "Point",
        "coordinates": [
          106.8024926,
          -6.2267337
        ]
      }
    },
    {
      "type": "Feature",
      "properties": {
        "name": "Blok M BCA",
        "mode": "MRT"
      },
      "geometry": {
        "type": "Point",
        "coordinates": [
          106.7981332,
          -6.2444643
        ]
      }
    },
    {
      "type": "Feature",
      "properties": {
        "name": "Blok A VISA",
        "mode": "MRT"
      },
      "geometry": {
        "type": "Point",
        "coordinates": [
          106.7971403,
          -6.2557793
        ]
      }
    },
    {
      "type": "Feature",
      "properties": {
        "name": "Haji Nawi",
        "mode": "MRT"
      },
      "geometry": {
        "type": "Point",
        "coordinates": [
          106.7973262,
          -6.2666947
        ]
      }
    },
    {
      "type": "Feature",
      "properties": {
        "name": "Cipete Raya TUKU",
        "mode": "MRT"
      },
      "geometry": {
        "type": "Point",
        "coordinates": [
          106.7973159,
          -6.2783596
        ]
      }
    },
    {
      "type": "Feature",
      "properties": {
        "name": "Cibungur",
        "mode": "KRL"
      },
      "geometry": {
        "type": "Point",
        "coordinates": [
          107.4795654,
          -6.4678378
        ]
      }
    },
    {
      "type": "Feature",
      "properties": {
        "name": "Purwakarta",
        "mode": "KRL"
      },
      "geometry": {
        "type": "Point",
        "coordinates": [
          107.4465323,
          -6.5527796
        ]
      }
    },
    {
      "type": "Feature",
      "properties": {
        "name": "Fatmawati Indomaret",
        "mode": "MRT"
      },
      "geometry": {
        "type": "Point",
        "coordinates": [
          106.7924644,
          -6.2924511
        ]
      }
    },
    {
      "type": "Feature",
      "properties": {
        "name": "Lebak Bulus Bank Syariah Indonesia",
        "mode": "MRT"
      },
      "geometry": {
        "type": "Point",
        "coordinates": [
          106.7749355,
          -6.2892744
        ]
      }
    },
    {
      "type": "Feature",
      "properties": {
        "name": "Cikoko",
        "mode": "LRT"
      },
      "geometry": {
        "type": "Point",
        "coordinates": [
          106.8570718,
          -6.2434846
        ]
      }
    },
    {
      "type": "Feature",
      "properties": {
        "name": "Pancoran",
        "mode": "LRT"
      },
      "geometry": {
        "type": "Point",
        "coordinates": [
          106.8385146,
          -6.2421415
        ]
      }
    },
    {
      "type": "Feature",
      "properties": {
        "name": "Setiabudi",
        "mode": "LRT"
      },
      "geometry": {
        "type": "Point",
        "coordinates": [
          106.8302343,
          -6.2093224
        ]
      }
    },
    {
      "type": "Feature",
      "properties": {
        "name": "Rasuna Said",
        "mode": "LRT"
      },
      "geometry": {
        "type": "Point",
        "coordinates": [
          106.8322373,
          -6.2216089
        ]
      }
    },
    {
      "type": "Feature",
      "properties": {
        "name": "Kampung Rambutan",
        "mode": "LRT"
      },
      "geometry": {
        "type": "Point",
        "coordinates": [
          106.8843804,
          -6.3095494
        ]
      }
    },
    {
      "type": "Feature",
      "properties": {
        "name": "Harjamukti",
        "mode": "LRT"
      },
      "geometry": {
        "type": "Point",
        "coordinates": [
          106.8956698,
          -6.3738926
        ]
      }
    },
    {
      "type": "Feature",
      "properties": {
        "name": "Cisauk",
        "mode": "KRL"
      },
      "geometry": {
        "type": "Point",
        "coordinates": [
          106.6416257,
          -6.3244445
        ]
      }
    },
    {
      "type": "Feature",
      "properties": {
        "name": "Jatimulya",
        "mode": "LRT"
      },
      "geometry": {
        "type": "Point",
        "coordinates": [
          107.0216701,
          -6.2641077
        ]
      }
    },
    {
      "type": "Feature",
      "properties": {
        "name": "Matraman",
        "mode": "KRL"
      },
      "geometry": {
        "type": "Point",
        "coordinates": [
          106.8597528,
          -6.2125672
        ]
      }
    },
    {
      "type": "Feature",
      "properties": {
        "name": "Cilame",
        "mode": "KRL"
      },
      "geometry": {
        "type": "Point",
        "coordinates": [
          107.4634455,
          -6.8033145
        ]
      }
    },
    {
      "type": "Feature",
      "properties": {
        "name": "Lemahabang",
        "mode": "KRL"
      },
      "geometry": {
        "type": "Point",
        "coordinates": [
          107.179632,
          -6.2706844
        ]
      }
    },
    {
      "type": "Feature",
      "properties": {
        "name": "Kosambi",
        "mode": "KRL"
      },
      "geometry": {
        "type": "Point",
        "coordinates": [
          107.3747867,
          -6.3690828
        ]
      }
    },
    {
      "type": "Feature",
      "properties": {
        "name": "Ciganea",
        "mode": "KRL"
      },
      "geometry": {
        "type": "Point",
        "coordinates": [
          107.4307049,
          -6.5735036
        ]
      }
    },
    {
      "type": "Feature",
      "properties": {
        "name": "Cikampek",
        "mode": "KRL"
      },
      "geometry": {
        "type": "Point",
        "coordinates": [
          107.4589073,
          -6.4064302
        ]
      }
    },
    {
      "type": "Feature",
      "properties": {
        "name": "Cipeuyeum",
        "mode": "KRL"
      },
      "geometry": {
        "type": "Point",
        "coordinates": [
          107.2981724,
          -6.818469
        ]
      }
    },
    {
      "type": "Feature",
      "properties": {
        "name": "Cipatat",
        "mode": "KRL"
      },
      "geometry": {
        "type": "Point",
        "coordinates": [
          107.3860457,
          -6.8220386
        ]
      }
    },
    {
      "type": "Feature",
      "properties": {
        "name": "Sasaksaat",
        "mode": "KRL"
      },
      "geometry": {
        "type": "Point",
        "coordinates": [
          107.4319885,
          -6.7801577
        ]
      }
    },
    {
      "type": "Feature",
      "properties": {
        "name": "Bogor",
        "mode": "KRL"
      },
      "geometry": {
        "type": "Point",
        "coordinates": [
          106.7907695,
          -6.5942887
        ]
      }
    },
    {
      "type": "Feature",
      "properties": {
        "name": "Bekasi Barat",
        "mode": "LRT"
      },
      "geometry": {
        "type": "Point",
        "coordinates": [
          106.9904237,
          -6.2529489
        ]
      }
    },
    {
      "type": "Feature",
      "properties": {
        "name": "Cikunir 2",
        "mode": "LRT"
      },
      "geometry": {
        "type": "Point",
        "coordinates": [
          106.9632112,
          -6.2546502
        ]
      }
    },
    {
      "type": "Feature",
      "properties": {
        "name": "Cikunir 1",
        "mode": "LRT"
      },
      "geometry": {
        "type": "Point",
        "coordinates": [
          106.9518734,
          -6.2566001
        ]
      }
    },
    {
      "type": "Feature",
      "properties": {
        "name": "Jatibening Baru",
        "mode": "LRT"
      },
      "geometry": {
        "type": "Point",
        "coordinates": [
          106.9279199,
          -6.2577476
        ]
      }
    },
    {
      "type": "Feature",
      "properties": {
        "name": "Kuningan",
        "mode": "LRT"
      },
      "geometry": {
        "type": "Point",
        "coordinates": [
          106.8332031,
          -6.2287727
        ]
      }
    },
    {
      "type": "Feature",
      "properties": {
        "name": "Ciracas",
        "mode": "LRT"
      },
      "geometry": {
        "type": "Point",
        "coordinates": [
          106.8866433,
          -6.3237693
        ]
      }
    },
    {
      "type": "Feature",
      "properties": {
        "name": "Dukuh Atas Bank Syariah Indonesia",
        "mode": "LRT"
      },
      "geometry": {
        "type": "Point",
        "coordinates": [
          106.8255301,
          -6.204828
        ]
      }
    },
    {
      "type": "Feature",
      "properties": {
        "name": "Ciliwung",
        "mode": "LRT"
      },
      "geometry": {
        "type": "Point",
        "coordinates": [
          106.8639705,
          -6.2434461
        ]
      }
    },
    {
      "type": "Feature",
      "properties": {
        "name": "Tambun",
        "mode": "KRL"
      },
      "geometry": {
        "type": "Point",
        "coordinates": [
          107.0558044,
          -6.2585496
        ]
      }
    },
    {
      "type": "Feature",
      "properties": {
        "name": "Batu Ceper",
        "mode": "KRL"
      },
      "geometry": {
        "type": "Point",
        "coordinates": [
          106.6652866,
          -6.1720268
        ]
      }
    },
    {
      "type": "Feature",
      "properties": {
        "name": "Jatake",
        "mode": "KRL"
      },
      "geometry": {
        "type": "Point",
        "coordinates": [
          106.6066128,
          -6.3349941
        ]
      }
    },
    {
      "type": "Feature",
      "properties": {
        "name": "Halim",
        "mode": "LRT"
      },
      "geometry": {
        "type": "Point",
        "coordinates": [
          106.8872875,
          -6.2458656
        ]
      }
    },
    {
      "type": "Feature",
      "properties": {
        "name": "Bogor Paledang",
        "mode": "KRL"
      },
      "geometry": {
        "type": "Point",
        "coordinates": [
          106.7906486,
          -6.5978118
        ]
      }
    },
    {
      "type": "Feature",
      "properties": {
        "name": "Padalarang",
        "mode": "KRL"
      },
      "geometry": {
        "type": "Point",
        "coordinates": [
          107.4969093,
          -6.8422655
        ]
      }
    },
    {
      "type": "Feature",
      "properties": {
        "name": "Cikarang",
        "mode": "KRL"
      },
      "geometry": {
        "type": "Point",
        "coordinates": [
          107.1450733,
          -6.2553138
        ]
      }
    },
    {
      "type": "Feature",
      "properties": {
        "name": "Bojong Indah",
        "mode": "KRL"
      },
      "geometry": {
        "type": "Point",
        "coordinates": [
          106.7361338,
          -6.1602142
        ]
      }
    },
    {
      "type": "Feature",
      "properties": {
        "name": "Klari",
        "mode": "KRL"
      },
      "geometry": {
        "type": "Point",
        "coordinates": [
          107.3453729,
          -6.349852
        ]
      }
    },
    {
      "type": "Feature",
      "properties": {
        "name": "Cianjur",
        "mode": "KRL"
      },
      "geometry": {
        "type": "Point",
        "coordinates": [
          107.1426417,
          -6.8245938
        ]
      }
    },
    {
      "type": "Feature",
      "properties": {
        "name": "Cicurug",
        "mode": "KRL"
      },
      "geometry": {
        "type": "Point",
        "coordinates": [
          106.7797692,
          -6.7901148
        ]
      }
    },
    {
      "type": "Feature",
      "properties": {
        "name": "Maja",
        "mode": "KRL"
      },
      "geometry": {
        "type": "Point",
        "coordinates": [
          106.3964794,
          -6.332503
        ]
      }
    },
    {
      "type": "Feature",
      "properties": {
        "name": "Bandara Soekarno-Hatta",
        "mode": "KRL"
      },
      "geometry": {
        "type": "Point",
        "coordinates": [
          106.6525156,
          -6.1272786
        ]
      }
    },
    {
      "type": "Feature",
      "properties": {
        "name": "Cawang",
        "mode": "LRT"
      },
      "geometry": {
        "type": "Point",
        "coordinates": [
          106.8712296,
          -6.245907
        ]
      }
    },
    {
      "type": "Feature",
      "properties": {
        "name": "Stasiun Parungkuda",
        "mode": "KRL"
      },
      "geometry": {
        "type": "Point",
        "coordinates": [
          106.7606078,
          -6.8464838
        ]
      }
    },
    {
      "type": "Feature",
      "properties": {
        "name": "Bandara Soekarno-Hatta",
        "mode": "KRL"
      },
      "geometry": {
        "type": "Point",
        "coordinates": [
          106.6529471,
          -6.1271283
        ]
      }
    },
    {
      "type": "Feature",
      "properties": {
        "name": "Terminal 1",
        "mode": "KRL"
      },
      "geometry": {
        "type": "Point",
        "coordinates": [
          106.655816,
          -6.1302909
        ]
      }
    },
    {
      "type": "Feature",
      "properties": {
        "name": "Terminal 2",
        "mode": "KRL"
      },
      "geometry": {
        "type": "Point",
        "coordinates": [
          106.6530206,
          -6.1231346
        ]
      }
    },
    {
      "type": "Feature",
      "properties": {
        "name": "Terminal 3",
        "mode": "KRL"
      },
      "geometry": {
        "type": "Point",
        "coordinates": [
          106.6651182,
          -6.1197896
        ]
      }
    }
  ]
}